ONEWEB-0358             
1 49284U 21090F   25307.72821662  .00000071  00000+0  14385-3 0  9991
2 49284  87.9192 319.3993 0001743  90.2623 269.8710 13.20771739200790
ONEWEB-0359             
1 49285U 21090G   25306.43718747  .00000057  00000+0  10933-3 0  9997
2 49285  87.9184 319.6587 0001881  81.2251 278.9096 13.20770126200601
ONEWEB-0360             
1 49286U 21090H   25306.42771520 -.00000055  00000+0 -16703-3 0  9996
2 49286  87.9185 319.6698 0001910  88.6494 271.4858 13.20769491199917
ONEWEB-0361             
1 49287U 21090J   25306.48452522  .00000044  00000+0  76559-4 0  9993
2 49287  87.9185 319.6540 0001681  91.9423 268.1903 13.20769901200371
ONEWEB-0362             
1 49288U 21090K   25307.54645793  .00000066  00000+0  13248-3 0  9995
2 49288  87.9226 349.8840 0002119  94.7192 265.4183 13.19725973197157
ONEWEB-0363             
1 49289U 21090L   25306.42454823  .00000039  00000+0  64617-4 0  9991
2 49289  87.9189 319.6627 0001502  91.8981 268.2324 13.20771632200375
ONEWEB-0364             
1 49290U 21090M   25307.75031860  .00000111  00000+0  24158-3 0  9998
2 49290  87.9183 319.4236 0001708  93.2433 266.8896 13.20773102201688
ONEWEB-0365             
1 49291U 21090N   25306.49450131 -.00000186  00000+0 -49599-3 0  9995
2 49291  87.9245 350.0525 0001985  99.4409 260.6948 13.19724874196524
ONEWEB-0366             
1 49292U 21090P   25307.51830507  .00000259  00000+0  66402-3 0  9990
2 49292  87.8999 334.6801 0001802  94.0425 266.0911 13.14503933197912
ONEWEB-0367             
1 49293U 21090Q   25306.49874676 -.00000044  00000+0 -14031-3 0  9997
2 49293  87.9195 319.6451 0002074  93.0225 267.1145 13.20771943199902
ONEWEB-0368             
1 49294U 21090R   25307.75978132  .00000109  00000+0  23680-3 0  9990
2 49294  87.9183 319.4270 0001668 118.6050 241.5251 13.20772010201224
ONEWEB-0369             
1 49295U 21090S   25307.55119693  .00000025  00000+0  31071-4 0  9999
2 49295  87.9238 349.8728 0001921  98.7526 261.3824 13.19725767196650
ONEWEB-0370             
1 49296U 21090T   25307.79608225 -.00000020  00000+0 -81717-4 0  9999
2 49296  87.9185 319.3940 0002093  84.9512 275.1860 13.20771810200115
ONEWEB-0371             
1 49297U 21090U   25306.49766238 -.00000018  00000+0 -77931-4 0  9995
2 49297  87.9236 350.0695 0002019  97.2139 262.9223 13.19725572196553
ONEWEB-0372             
1 49298U 21090V   25306.49703252 -.00000024  00000+0 -91323-4 0  9991
2 49298  87.9186 319.6543 0001904  95.5257 264.6093 13.20771344199912
ONEWEB-0373             
1 49299U 21090W   25307.73610650  .00000115  00000+0  25160-3 0  9993
2 49299  87.9180 319.4206 0001797  89.3542 270.7798 13.20770908201266
ONEWEB-0374             
1 49300U 21090X   25307.81008492 -.00000142  00000+0 -41670-3 0  9996
2 49300  87.9002 334.5979 0001354 103.9774 256.1506 13.14501263197950
