[{"OBJECT_NAME":"ONEWEB-0358","OBJECT_ID":"2021-090F","EPOCH":"2025-11-03T17:28:37.915968","MEAN_MOTION":13.20771739,"ECCENTRICITY":0.0001743,"INCLINATION":87.9192,"RA_OF_ASC_NODE":319.3993,"ARG_OF_PERICENTER":90.2623,"MEAN_ANOMALY":269.871,"EPHEMERIS_TYPE":0,"CLASSIFICATION_TYPE":"U","NORAD_CAT_ID":49284,"ELEMENT_SET_NO":999,"REV_AT_EPOCH":20079,"BSTAR":0.00014385,"MEAN_MOTION_DOT":7.1e-7,"MEAN_MOTION_DDOT":0},{"OBJECT_NAME":"ONEWEB-0359","OBJECT_ID":"2021-090G","EPOCH":"2025-11-02T10:29:32.997408","MEAN_MOTION":13.20770126,"ECCENTRICITY":0.0001881,"INCLINATION":87.9184,"RA_OF_ASC_NODE":319.6587,"ARG_OF_PERICENTER":81.2251,"MEAN_ANOMALY":278.9096,"EPHEMERIS_TYPE":0,"CLASSIFICATION_TYPE":"U","NORAD_CAT_ID":49285,"ELEMENT_SET_NO":999,"REV_AT_EPOCH":20060,"BSTAR":0.00010933,"MEAN_MOTION_DOT":5.7e-7,"MEAN_MOTION_DDOT":0},{"OBJECT_NAME":"ONEWEB-0360","OBJECT_ID":"2021-090H","EPOCH":"2025-11-02T10:15:54.593280","MEAN_MOTION":13.20769491,"ECCENTRICITY":0.000191,"INCLINATION":87.9185,"RA_OF_ASC_NODE":319.6698,"ARG_OF_PERICENTER":88.6494,"MEAN_ANOMALY":271.4858,"EPHEMERIS_TYPE":0,"CLASSIFICATION_TYPE":"U","NORAD_CAT_ID":49286,"ELEMENT_SET_NO":999,"REV_AT_EPOCH":19991,"BSTAR":-0.00016703,"MEAN_MOTION_DOT":-5.5e-7,"MEAN_MOTION_DDOT":0},{"OBJECT_NAME":"ONEWEB-0361","OBJECT_ID":"2021-090J","EPOCH":"2025-11-02T11:37:42.979008","MEAN_MOTION":13.20769901,"ECCENTRICITY":0.0001681,"INCLINATION":87.9185,"RA_OF_ASC_NODE":319.654,"ARG_OF_PERICENTER":91.9423,"MEAN_ANOMALY":268.1903,"EPHEMERIS_TYPE":0,"CLASSIFICATION_TYPE":"U","NORAD_CAT_ID":49287,"ELEMENT_SET_NO":999,"REV_AT_EPOCH":20037,"BSTAR":7.6559e-5,"MEAN_MOTION_DOT":4.4e-7,"MEAN_MOTION_DDOT":0},{"OBJECT_NAME":"ONEWEB-0362","OBJECT_ID":"2021-090K","EPOCH":"2025-11-03T13:06:53.965152","MEAN_MOTION":13.19725973,"ECCENTRICITY":0.0002119,"INCLINATION":87.9226,"RA_OF_ASC_NODE":349.884,"ARG_OF_PERICENTER":94.7192,"MEAN_ANOMALY":265.4183,"EPHEMERIS_TYPE":0,"CLASSIFICATION_TYPE":"U","NORAD_CAT_ID":49288,"ELEMENT_SET_NO":999,"REV_AT_EPOCH":19715,"BSTAR":0.00013248,"MEAN_MOTION_DOT":6.6e-7,"MEAN_MOTION_DDOT":0},{"OBJECT_NAME":"ONEWEB-0363","OBJECT_ID":"2021-090L","EPOCH":"2025-11-02T10:11:20.967072","MEAN_MOTION":13.20771632,"ECCENTRICITY":0.0001502,"INCLINATION":87.9189,"RA_OF_ASC_NODE":319.6627,"ARG_OF_PERICENTER":91.8981,"MEAN_ANOMALY":268.2324,"EPHEMERIS_TYPE":0,"CLASSIFICATION_TYPE":"U","NORAD_CAT_ID":49289,"ELEMENT_SET_NO":999,"REV_AT_EPOCH":20037,"BSTAR":6.4617e-5,"MEAN_MOTION_DOT":3.9e-7,"MEAN_MOTION_DDOT":0},{"OBJECT_NAME":"ONEWEB-0364","OBJECT_ID":"2021-090M","EPOCH":"2025-11-03T18:00:27.527040","MEAN_MOTION":13.20773102,"ECCENTRICITY":0.0001708,"INCLINATION":87.9183,"RA_OF_ASC_NODE":319.4236,"ARG_OF_PERICENTER":93.2433,"MEAN_ANOMALY":266.8896,"EPHEMERIS_TYPE":0,"CLASSIFICATION_TYPE":"U","NORAD_CAT_ID":49290,"ELEMENT_SET_NO":999,"REV_AT_EPOCH":20168,"BSTAR":0.00024158,"MEAN_MOTION_DOT":1.11e-6,"MEAN_MOTION_DDOT":0},{"OBJECT_NAME":"ONEWEB-0365","OBJECT_ID":"2021-090N","EPOCH":"2025-11-02T11:52:04.913184","MEAN_MOTION":13.19724874,"ECCENTRICITY":0.0001985,"INCLINATION":87.9245,"RA_OF_ASC_NODE":350.0525,"ARG_OF_PERICENTER":99.4409,"MEAN_ANOMALY":260.6948,"EPHEMERIS_TYPE":0,"CLASSIFICATION_TYPE":"U","NORAD_CAT_ID":49291,"ELEMENT_SET_NO":999,"REV_AT_EPOCH":19652,"BSTAR":-0.00049599,"MEAN_MOTION_DOT":-1.86e-6,"MEAN_MOTION_DDOT":0},{"OBJECT_NAME":"ONEWEB-0366","OBJECT_ID":"2021-090P","EPOCH":"2025-11-03T12:26:21.558048","MEAN_MOTION":13.14503933,"ECCENTRICITY":0.0001802,"INCLINATION":87.8999,"RA_OF_ASC_NODE":334.6801,"ARG_OF_PERICENTER":94.0425,"MEAN_ANOMALY":266.0911,"EPHEMERIS_TYPE":0,"CLASSIFICATION_TYPE":"U","NORAD_CAT_ID":49292,"ELEMENT_SET_NO":999,"REV_AT_EPOCH":19791,"BSTAR":0.00066402,"MEAN_MOTION_DOT":2.59e-6,"MEAN_MOTION_DDOT":0},{"OBJECT_NAME":"ONEWEB-0367","OBJECT_ID":"2021-090Q","EPOCH":"2025-11-02T11:58:11.720064","MEAN_MOTION":13.20771943,"ECCENTRICITY":0.0002074,"INCLINATION":87.9195,"RA_OF_ASC_NODE":319.6451,"ARG_OF_PERICENTER":93.0225,"MEAN_ANOMALY":267.1145,"EPHEMERIS_TYPE":0,"CLASSIFICATION_TYPE":"U","NORAD_CAT_ID":49293,"ELEMENT_SET_NO":999,"REV_AT_EPOCH":19990,"BSTAR":-0.00014031,"MEAN_MOTION_DOT":-4.4e-7,"MEAN_MOTION_DDOT":0},{"OBJECT_NAME":"ONEWEB-0368","OBJECT_ID":"2021-090R","EPOCH":"2025-11-03T18:14:05.106048","MEAN_MOTION":13.2077201,"ECCENTRICITY":0.0001668,"INCLINATION":87.9183,"RA_OF_ASC_NODE":319.427,"ARG_OF_PERICENTER":118.605,"MEAN_ANOMALY":241.5251,"EPHEMERIS_TYPE":0,"CLASSIFICATION_TYPE":"U","NORAD_CAT_ID":49294,"ELEMENT_SET_NO":999,"REV_AT_EPOCH":20122,"BSTAR":0.0002368,"MEAN_MOTION_DOT":1.09e-6,"MEAN_MOTION_DDOT":0},{"OBJECT_NAME":"ONEWEB-0369","OBJECT_ID":"2021-090S","EPOCH":"2025-11-03T13:13:43.414752","MEAN_MOTION":13.19725767,"ECCENTRICITY":0.0001921,"INCLINATION":87.9238,"RA_OF_ASC_NODE":349.8728,"ARG_OF_PERICENTER":98.7526,"MEAN_ANOMALY":261.3824,"EPHEMERIS_TYPE":0,"CLASSIFICATION_TYPE":"U","NORAD_CAT_ID":49295,"ELEMENT_SET_NO":999,"REV_AT_EPOCH":19665,"BSTAR":3.1071e-5,"MEAN_MOTION_DOT":2.5e-7,"MEAN_MOTION_DDOT":0},{"OBJECT_NAME":"ONEWEB-0370","OBJECT_ID":"2021-090T","EPOCH":"2025-11-03T19:06:21.506400","MEAN_MOTION":13.2077181,"ECCENTRICITY":0.0002093,"INCLINATION":87.9185,"RA_OF_ASC_NODE":319.394,"ARG_OF_PERICENTER":84.9512,"MEAN_ANOMALY":275.186,"EPHEMERIS_TYPE":0,"CLASSIFICATION_TYPE":"U","NORAD_CAT_ID":49296,"ELEMENT_SET_NO":999,"REV_AT_EPOCH":20011,"BSTAR":-8.1717e-5,"MEAN_MOTION_DOT":-2.0e-7,"MEAN_MOTION_DDOT":0},{"OBJECT_NAME":"ONEWEB-0371","OBJECT_ID":"2021-090U","EPOCH":"2025-11-02T11:56:38.029632","MEAN_MOTION":13.19725572,"ECCENTRICITY":0.0002019,"INCLINATION":87.9236,"RA_OF_ASC_NODE":350.0695,"ARG_OF_PERICENTER":97.2139,"MEAN_ANOMALY":262.9223,"EPHEMERIS_TYPE":0,"CLASSIFICATION_TYPE":"U","NORAD_CAT_ID":49297,"ELEMENT_SET_NO":999,"REV_AT_EPOCH":19655,"BSTAR":-7.7931e-5,"MEAN_MOTION_DOT":-1.8e-7,"MEAN_MOTION_DDOT":0},{"OBJECT_NAME":"ONEWEB-0372","OBJECT_ID":"2021-090V","EPOCH":"2025-11-02T11:55:43.609728","MEAN_MOTION":13.20771344,"ECCENTRICITY":0.0001904,"INCLINATION":87.9186,"RA_OF_ASC_NODE":319.6543,"ARG_OF_PERICENTER":95.5257,"MEAN_ANOMALY":264.6093,"EPHEMERIS_TYPE":0,"CLASSIFICATION_TYPE":"U","NORAD_CAT_ID":49298,"ELEMENT_SET_NO":999,"REV_AT_EPOCH":19991,"BSTAR":-9.1323e-5,"MEAN_MOTION_DOT":-2.4e-7,"MEAN_MOTION_DDOT":0},{"OBJECT_NAME":"ONEWEB-0373","OBJECT_ID":"2021-090W","EPOCH":"2025-11-03T17:39:59.601600","MEAN_MOTION":13.20770908,"ECCENTRICITY":0.0001797,"INCLINATION":87.918,"RA_OF_ASC_NODE":319.4206,"ARG_OF_PERICENTER":89.3542,"MEAN_ANOMALY":270.7798,"EPHEMERIS_TYPE":0,"CLASSIFICATION_TYPE":"U","NORAD_CAT_ID":49299,"ELEMENT_SET_NO":999,"REV_AT_EPOCH":20126,"BSTAR":0.0002516,"MEAN_MOTION_DOT":1.15e-6,"MEAN_MOTION_DDOT":0},{"OBJECT_NAME":"ONEWEB-0374","OBJECT_ID":"2021-090X","EPOCH":"2025-11-03T19:26:31.337088","MEAN_MOTION":13.14501263,"ECCENTRICITY":0.0001354,"INCLINATION":87.9002,"RA_OF_ASC_NODE":334.5979,"ARG_OF_PERICENTER":103.9774,"MEAN_ANOMALY":256.1506,"EPHEMERIS_TYPE":0,"CLASSIFICATION_TYPE":"U","NORAD_CAT_ID":49300,"ELEMENT_SET_NO":999,"REV_AT_EPOCH":19795,"BSTAR":-0.0004167,"MEAN_MOTION_DOT":-1.42e-6,"MEAN_MOTION_DDOT":0}]
